{
  "type": "FeatureCollection",
  "features": [
    {
      "type": "Feature",
      "properties": {
        "norad_id": 39617,
        "name": "ASTRA 5B (EGNOS/PRN 123)",
        "group": "gnss",
        "lat": 0.009613567135310317,
        "lon": -172.27518597663922,
        "alt_km": 35781.18611258255,
        "timestamp": "2025-12-08T05:48:09.277892+00:00",
        "meta_object_name": "ASTRA 5B (EGNOS/PRN 123)",
        "meta_object_id": "2014-011B",
        "meta_epoch": "2025-12-07T22:18:22.344192",
        "meta_mean_motion": 1.002696,
        "meta_eccentricity": 0.00045686,
        "meta_inclination": 0.0534,
        "meta_ra_of_asc_node": 26.5701,
        "meta_arg_of_pericenter": 234.7752,
        "meta_mean_anomaly": 173.6844,
        "meta_ephemeris_type": 0,
        "meta_classification_type": "U",
        "meta_norad_cat_id": 39617,
        "meta_element_set_no": 999,
        "meta_rev_at_epoch": 4275,
        "meta_bstar": 0,
        "meta_mean_motion_dot": 1.4e-06,
        "meta_mean_motion_ddot": 0,
        "tle_line1": "1 39617U 14011B   25341.92942528  .00000140  00000+0  00000+0 0  9992",
        "tle_line2": "2 39617   0.0534  26.5701 0004568 234.7752 173.6844  1.00269600 42759"
      },
      "geometry": {
        "type": "Point",
        "coordinates": [
          -172.27518597663922,
          0.009613567135310317
        ]
      }
    },
    {
      "type": "Feature",
      "properties": {
        "norad_id": 39620,
        "name": "COSMOS 2492 (754)",
        "group": "gnss",
        "lat": -64.44198973724177,
        "lon": -112.79500778734524,
        "alt_km": 19106.47786822442,
        "timestamp": "2025-12-08T05:48:09.277903+00:00",
        "meta_object_name": "COSMOS 2492 (754)",
        "meta_object_id": "2014-012A",
        "meta_epoch": "2025-12-06T22:36:05.505696",
        "meta_mean_motion": 2.13103091,
        "meta_eccentricity": 0.00141965,
        "meta_inclination": 65.4111,
        "meta_ra_of_asc_node": 320.4673,
        "meta_arg_of_pericenter": 311.6327,
        "meta_mean_anomaly": 48.2397,
        "meta_ephemeris_type": 0,
        "meta_classification_type": "U",
        "meta_norad_cat_id": 39620,
        "meta_element_set_no": 999,
        "meta_rev_at_epoch": 9114,
        "meta_bstar": 0,
        "meta_mean_motion_dot": -4.9e-07,
        "meta_mean_motion_ddot": 0,
        "tle_line1": "1 39620U 14012A   25340.94173039 -.00000049  00000+0  00000+0 0  9990",
        "tle_line2": "2 39620  65.4111 320.4673 0014196 311.6327  48.2397  2.13103091 91147"
      },
      "geometry": {
        "type": "Point",
        "coordinates": [
          -112.79500778734524,
          -64.44198973724177
        ]
      }
    },
    {
      "type": "Feature",
      "properties": {
        "norad_id": 39635,
        "name": "IRNSS-1B",
        "group": "gnss",
        "lat": -11.443121961251995,
        "lon": -137.84159694651194,
        "alt_km": 35852.64608402886,
        "timestamp": "2025-12-08T05:48:09.277914+00:00",
        "meta_object_name": "IRNSS-1B",
        "meta_object_id": "2014-017A",
        "meta_epoch": "2025-12-07T19:02:08.350080",
        "meta_mean_motion": 1.00276938,
        "meta_eccentricity": 0.00176548,
        "meta_inclination": 28.8332,
        "meta_ra_of_asc_node": 243.6763,
        "meta_arg_of_pericenter": 183.0277,
        "meta_mean_anomaly": 350.7455,
        "meta_ephemeris_type": 0,
        "meta_classification_type": "U",
        "meta_norad_cat_id": 39635,
        "meta_element_set_no": 999,
        "meta_rev_at_epoch": 4287,
        "meta_bstar": 0,
        "meta_mean_motion_dot": 1.18e-06,
        "meta_mean_motion_ddot": 0,
        "tle_line1": "1 39635U 14017A   25341.79315220  .00000118  00000+0  00000+0 0  9991",
        "tle_line2": "2 39635  28.8332 243.6763 0017654 183.0277 350.7455  1.00276938 42872"
      },
      "geometry": {
        "type": "Point",
        "coordinates": [
          -137.84159694651194,
          -11.443121961251995
        ]
      }
    },
    {
      "type": "Feature",
      "properties": {
        "norad_id": 39727,
        "name": "LUCH 5V (SDCM/PRN 141)",
        "group": "gnss",
        "lat": -0.6279371847328071,
        "lon": -100.97228446991869,
        "alt_km": 35767.83444365943,
        "timestamp": "2025-12-08T05:48:09.277928+00:00",
        "meta_object_name": "LUCH 5V (SDCM/PRN 141)",
        "meta_object_id": "2014-023A",
        "meta_epoch": "2025-12-07T19:13:14.786112",
        "meta_mean_motion": 1.00270486,
        "meta_eccentricity": 0.00045992,
        "meta_inclination": 4.6568,
        "meta_ra_of_asc_node": 71.5807,
        "meta_arg_of_pericenter": 203.2773,
        "meta_mean_anomaly": 185.0478,
        "meta_ephemeris_type": 0,
        "meta_classification_type": "U",
        "meta_norad_cat_id": 39727,
        "meta_element_set_no": 999,
        "meta_rev_at_epoch": 4244,
        "meta_bstar": 0,
        "meta_mean_motion_dot": -2.67e-06,
        "meta_mean_motion_ddot": 0,
        "tle_line1": "1 39727U 14023A   25341.80086558 -.00000267  00000+0  00000+0 0  9997",
        "tle_line2": "2 39727   4.6568  71.5807 0004599 203.2773 185.0478  1.00270486 42443"
      },
      "geometry": {
        "type": "Point",
        "coordinates": [
          -100.97228446991869,
          -0.6279371847328071
        ]
      }
    },
    {
      "type": "Feature",
      "properties": {
        "norad_id": 39741,
        "name": "GPS BIIF-6  (PRN 06)",
        "group": "gnss",
        "lat": 8.86457617100652,
        "lon": 153.03550434463006,
        "alt_km": 20270.27952151689,
        "timestamp": "2025-12-08T05:48:09.277939+00:00",
        "meta_object_name": "GPS BIIF-6  (PRN 06)",
        "meta_object_id": "2014-026A",
        "meta_epoch": "2025-12-07T12:11:28.594176",
        "meta_mean_motion": 2.00561597,
        "meta_eccentricity": 0.00390407,
        "meta_inclination": 56.5857,
        "meta_ra_of_asc_node": 338.9799,
        "meta_arg_of_pericenter": 318.3816,
        "meta_mean_anomaly": 41.333,
        "meta_ephemeris_type": 0,
        "meta_classification_type": "U",
        "meta_norad_cat_id": 39741,
        "meta_element_set_no": 999,
        "meta_rev_at_epoch": 8469,
        "meta_bstar": 0,
        "meta_mean_motion_dot": -8.2e-07,
        "meta_mean_motion_ddot": 0,
        "tle_line1": "1 39741U 14026A   25341.50796984 -.00000082  00000+0  00000+0 0  9999",
        "tle_line2": "2 39741  56.5857 338.9799 0039040 318.3816  41.3330  2.00561597 84692"
      },
      "geometry": {
        "type": "Point",
        "coordinates": [
          153.03550434463006,
          8.86457617100652
        ]
      }
    },
    {
      "type": "Feature",
      "properties": {
        "norad_id": 40001,
        "name": "COSMOS 2500 (755)",
        "group": "gnss",
        "lat": 31.329909531372465,
        "lon": 123.9420583889101,
        "alt_km": 19120.35230581252,
        "timestamp": "2025-12-08T05:48:09.277950+00:00",
        "meta_object_name": "COSMOS 2500 (755)",
        "meta_object_id": "2014-032A",
        "meta_epoch": "2025-12-07T02:44:10.438080",
        "meta_mean_motion": 2.13105901,
        "meta_eccentricity": 0.00081625,
        "meta_inclination": 65.3466,
        "meta_ra_of_asc_node": 320.2241,
        "meta_arg_of_pericenter": 219.2555,
        "meta_mean_anomaly": 140.6795,
        "meta_ephemeris_type": 0,
        "meta_classification_type": "U",
        "meta_norad_cat_id": 40001,
        "meta_element_set_no": 999,
        "meta_rev_at_epoch": 8936,
        "meta_bstar": 0,
        "meta_mean_motion_dot": -4.9e-07,
        "meta_mean_motion_ddot": 0,
        "tle_line1": "1 40001U 14032A   25341.11400970 -.00000049  00000+0  00000+0 0  9994",
        "tle_line2": "2 40001  65.3466 320.2241 0008162 219.2555 140.6795  2.13105901 89367"
      },
      "geometry": {
        "type": "Point",
        "coordinates": [
          123.9420583889101,
          31.329909531372465
        ]
      }
    },
    {
      "type": "Feature",
      "properties": {
        "norad_id": 40105,
        "name": "GPS BIIF-7  (PRN 09)",
        "group": "gnss",
        "lat": 51.89719021608282,
        "lon": -146.17350421326339,
        "alt_km": 20090.466263033864,
        "timestamp": "2025-12-08T05:48:09.277962+00:00",
        "meta_object_name": "GPS BIIF-7  (PRN 09)",
        "meta_object_id": "2014-045A",
        "meta_epoch": "2025-12-07T14:17:59.496864",
        "meta_mean_motion": 2.00572139,
        "meta_eccentricity": 0.00328259,
        "meta_inclination": 55.2261,
        "meta_ra_of_asc_node": 96.1042,
        "meta_arg_of_pericenter": 119.7348,
        "meta_mean_anomaly": 240.5718,
        "meta_ephemeris_type": 0,
        "meta_classification_type": "U",
        "meta_norad_cat_id": 40105,
        "meta_element_set_no": 999,
        "meta_rev_at_epoch": 8223,
        "meta_bstar": 0,
        "meta_mean_motion_dot": -4e-08,
        "meta_mean_motion_ddot": 0,
        "tle_line1": "1 40105U 14045A   25341.59582751 -.00000004  00000+0  00000+0 0  9994",
        "tle_line2": "2 40105  55.2261  96.1042 0032825 119.7348 240.5718  2.00572139 82239"
      },
      "geometry": {
        "type": "Point",
        "coordinates": [
          -146.17350421326339,
          51.89719021608282
        ]
      }
    }
  ]
}